     2.100          NAVIGATION                              RINEX VERSION / TYPE
fic2rin                                 04/04/2017 00:21:33 PGM / RUN BY / DATE
                                                            END OF HEADER
 1 17  4  3  2  0  0.0  .526267103851D-04  .795807864051D-12  .000000000000D+00
     .140000000000D+02 -.307187500000D+02  .446554315065D-08  .154506404251D+01
    -.149011611938D-05  .642552389763D-02  .979937613010D-05  .515369115639D+04
     .936000000000D+05 -.931322574615D-07 -.151312381854D+01  .968575477600D-07
     .966634101539D+00  .194968750000D+03  .534496230359D+00 -.800926218935D-08
     .146791828755D-09  .100000000000D+01  .194300000000D+04  .000000000000D+00
     .240000000000D+01  .000000000000D+00  .512227416039D-08  .140000000000D+02
     .864060000000D+05  .400000000000D+01
 2 17  4  3  2  0  0.0  .446903519332D-03 -.727595761418D-11  .000000000000D+00
     .980000000000D+02 -.612187500000D+02  .475269796895D-08  .189593144694D+01
    -.346638262272D-05  .167533600470D-01  .103395432234D-04  .515376570320D+04
     .936000000000D+05 -.171363353729D-06 -.156535495911D+01 -.363215804100D-06
     .945542910229D+00  .173562500000D+03 -.199573801617D+01 -.806426448041D-08
     .202151277555D-09  .100000000000D+01  .194300000000D+04  .000000000000D+00
     .240000000000D+01  .000000000000D+00 -.204890966415D-07  .980000000000D+02
     .864060000000D+05  .400000000000D+01
 3 17  4  3  2  0  0.0 -.105523038656D-03  .102318153949D-11  .000000000000D+00
     .900000000000D+02  .193750000000D+01  .480912889095D-08  .828582859951D+00
     .745058059692D-07  .544969341718D-03  .713393092155D-05  .515376375389D+04
     .936000000000D+05  .111758708954D-07 -.470670783750D+00  .167638063431D-07
     .959956815312D+00  .239781250000D+03  .154548286425D+00 -.816712590786D-08
     .221437795202D-10  .100000000000D+01  .194300000000D+04  .000000000000D+00
     .240000000000D+01  .000000000000D+00  .186264514923D-08  .900000000000D+02
     .864060000000D+05  .400000000000D+01
 4 17  4  3  2  0  0.0  .134808942676D-05  .568434188608D-12  .000000000000D+00
     .700000000000D+02  .263125000000D+02  .544772691969D-08 -.149566001453D+01
     .145472586155D-05  .908737513237D-02  .392645597458D-05  .515374150848D+04
     .936000000000D+05  .162050127983D-06  .269609159337D+01  .204890966415D-07
     .982360552814D+00  .310312500000D+03  .886531935796D+00 -.805247827518D-08
     .175007289756D-09  .100000000000D+01  .194300000000D+04  .000000000000D+00
     .340000000000D+01  .630000000000D+02 -.195577740669D-07  .700000000000D+02
     .864060000000D+05  .400000000000D+01
 5 17  4  3  2  0  0.0 -.525894574821D-04  .193267624127D-11  .000000000000D+00
     .900000000000D+02  .906250000000D+00  .501235164171D-08 -.179154119110D+01
     .447034835815D-07  .491560401861D-02  .746175646782D-05  .515370861816D+04
     .936000000000D+05  .186264514923D-07 -.486762414488D+00 -.894069671631D-07
     .946921330160D+00  .228812500000D+03  .541450256799D+00 -.817319758934D-08
     .121076471892D-09  .100000000000D+01  .194300000000D+04  .000000000000D+00
     .240000000000D+01  .000000000000D+00 -.107102096081D-07  .900000000000D+02
     .864060000000D+05  .400000000000D+01
 6 17  4  3  2  0  0.0  .332867261022D-03  .500222085975D-11  .000000000000D+00
     .510000000000D+02 -.484062500000D+02  .436875340469D-08  .172211279019D+01
    -.252574682236D-05  .786409014836D-03  .101700425148D-04  .515364821434D+04
     .936000000000D+05 -.335276126862D-07 -.152150970092D+01  .558793544769D-08
     .966416461753D+00  .182062500000D+03 -.120952376831D+01 -.792354433314D-08
     .179293182566D-09  .100000000000D+01  .194300000000D+04  .000000000000D+00
     .240000000000D+01  .000000000000D+00  .419095158577D-08  .510000000000D+02
     .864060000000D+05  .400000000000D+01
 7 17  4  3  2  0  0.0  .366531312466D-03 -.409272615798D-11  .000000000000D+00
     .890000000000D+02  .792187500000D+02  .440661212451D-08  .938625660086D+00
     .416673719883D-05  .102611623006D-01  .816769897938D-05  .515375307274D+04
     .936000000000D+05 -.115483999252D-06  .164446358843D+01  .141561031342D-06
     .962648291994D+00  .224343750000D+03 -.261043383091D+01 -.810962351266D-08
    -.900037490174D-10  .100000000000D+01  .194300000000D+04  .000000000000D+00
     .240000000000D+01  .000000000000D+00 -.111758708954D-07  .890000000000D+02
     .864060000000D+05  .400000000000D+01
 8 17  4  3  2  0  0.0 -.549494288862D-04 -.136424205266D-11  .000000000000D+00
     .230000000000D+02 -.704687500000D+02  .452375986133D-08 -.201479643892D+01
    -.362470746040D-05  .260369607713D-02  .670365989208D-05  .515361425591D+04
     .936000000000D+05 -.106170773506D-06 -.257588541272D+01  .149011611938D-07
     .966379783471D+00  .254781250000D+03 -.761929203558D+00 -.812712424163D-08
    -.589310261424D-10  .100000000000D+01  .194300000000D+04  .000000000000D+00
     .240000000000D+01  .000000000000D+00  .465661287308D-08  .230000000000D+02
     .864060000000D+05  .400000000000D+01
 9 17  4  3  2  0  0.0  .334967393428D-03  .773070496507D-11  .000000000000D+00
     .290000000000D+02  .141562500000D+02  .467805200250D-08 -.252011877366D+01
     .709667801857D-06  .864450703375D-03  .900775194168D-05  .515366049385D+04
     .936000000000D+05  .558793544769D-07  .565670861022D+00  .242143869400D-07
     .953992024317D+00  .203625000000D+03  .185835252373D+01 -.805069248651D-08
    -.350014579512D-09  .100000000000D+01  .194300000000D+04  .000000000000D+00
     .240000000000D+01  .000000000000D+00  .139698386192D-08  .290000000000D+02
     .864060000000D+05  .400000000000D+01
10 17  4  3  2  0  0.0 -.836215913296D-04  .693489710102D-11  .000000000000D+00
     .190000000000D+02  .562500000000D+00  .470912472538D-08 -.630795484215D+00
    -.132247805595D-06  .238655263092D-02  .746920704842D-05  .515366899872D+04
     .936000000000D+05  .391155481339D-07 -.474423595796D+00 -.372529029846D-08
     .960132407906D+00  .236437500000D+03 -.281034764585D+01 -.812105256015D-08
     .210723063176D-10  .100000000000D+01  .194300000000D+04  .000000000000D+00
     .240000000000D+01  .000000000000D+00  .232830643654D-08  .190000000000D+02
     .864060000000D+05  .400000000000D+01
11 17  4  3  2  0  0.0 -.678860116750D-03 -.250111042988D-11  .000000000000D+00
     .860000000000D+02 -.588125000000D+02  .608739642164D-08  .935112030758D+00
    -.325776636600D-05  .166435856372D-01  .909343361855D-05  .515370537567D+04
     .936000000000D+05 -.268220901489D-06 -.191193913251D+01 -.217929482460D-06
     .899990672407D+00  .177531250000D+03  .162942485055D+01 -.900501795229D-08
     .850035407387D-10  .100000000000D+01  .194300000000D+04  .000000000000D+00
     .240000000000D+01  .000000000000D+00 -.121071934700D-07  .860000000000D+02
     .864060000000D+05  .400000000000D+01
12 17  4  3  2  0  0.0  .386093277484D-03 -.568434188608D-12  .000000000000D+00
     .104000000000D+03  .352187500000D+02  .417410243955D-08  .330580635199D+00
     .167824327946D-05  .661712395959D-02  .442005693913D-05  .515355726242D+04
     .936000000000D+05 -.428408384323D-07  .272765940228D+01  .633299350739D-07
     .989612923842D+00  .313187500000D+03  .823688499281D+00 -.821462788651D-08
     .109290266664D-09  .100000000000D+01  .194300000000D+04  .000000000000D+00
     .240000000000D+01  .000000000000D+00 -.121071934700D-07  .104000000000D+03
     .864060000000D+05  .400000000000D+01
13 17  4  3  2  0  0.0 -.764452852309D-04 -.159161572810D-11  .000000000000D+00
     .880000000000D+02  .191562500000D+02  .423839083170D-08  .195883467584D+01
     .101141631603D-05  .394897512160D-02  .913254916668D-05  .515368444252D+04
     .936000000000D+05  .145286321640D-06  .691052992125D+00  .167638063431D-07
     .970031326476D+00  .208062500000D+03  .184483595211D+01 -.780532512312D-08
    -.317156067966D-09  .100000000000D+01  .194300000000D+04  .000000000000D+00
     .340000000000D+01  .000000000000D+00 -.111758708954D-07  .880000000000D+02
     .864060000000D+05  .400000000000D+01
14 17  4  3  2  0  0.0 -.653662718832D-04 -.159161572810D-11  .000000000000D+00
     .103000000000D+03  .359375000000D+01  .433803783955D-08 -.295551882781D+01
     .203028321266D-06  .886262732092D-02  .911951065063D-05  .515363583946D+04
     .936000000000D+05  .931322574615D-08  .651970126224D+00 -.540167093277D-07
     .962570583248D+00  .203812500000D+03 -.196198133802D+01 -.775996609088D-08
    -.248938940735D-09  .100000000000D+01  .194300000000D+04  .000000000000D+00
     .240000000000D+01  .000000000000D+00 -.931322574615D-08  .103000000000D+03
     .864060000000D+05  .400000000000D+01
15 17  4  3  2  0  0.0 -.347026158124D-03 -.909494701773D-12  .000000000000D+00
     .740000000000D+02  .381250000000D+01  .528200573103D-08  .281144702440D+01
     .143423676491D-06  .909180613235D-02  .836327672005D-05  .515376618004D+04
     .936000000000D+05  .372529029846D-08  .505429061926D+00 -.128522515297D-06
     .929653911200D+00  .202312500000D+03  .579380340328D+00 -.827498754359D-08
    -.303941231801D-09  .100000000000D+01  .194300000000D+04  .000000000000D+00
     .240000000000D+01  .000000000000D+00 -.107102096081D-07  .740000000000D+02
     .864060000000D+05  .400000000000D+01
16 17  4  3  2  0  0.0  .304449349642D-04  .909494701773D-12  .000000000000D+00
     .690000000000D+02  .136562500000D+02  .402088177158D-08 -.165531983766D+01
     .488013029099D-06  .932870630641D-02  .411272048950D-05  .515367561340D+04
     .936000000000D+05  .106170773506D-06  .274649983854D+01 -.577419996262D-07
     .990102733684D+00  .310718750000D+03  .423209058939D+00 -.801104797802D-08
     .214294640518D-09  .100000000000D+01  .194300000000D+04  .000000000000D+00
     .240000000000D+01  .000000000000D+00 -.107102096081D-07  .690000000000D+02
     .864060000000D+05  .400000000000D+01
